NORAD_CAT_ID,OBJECT_NAME,OBJECT_TYPE,EPOCH,MEAN_MOTION,ECCENTRICITY,INCLINATION,RA_OF_ASC_NODE,ARG_OF_PERICENTER,MEAN_ANOMALY,BSTAR,MEAN_MOTION_DOT,MEAN_MOTION_DDOT,TLE_LINE0,TLE_LINE1,TLE_LINE2,SEMIMAJOR_AXIS,PERIOD,APOGEE,PERIGEE,DECAYED
51801.0,STARLINK-3592,PAYLOAD,2022-11-15 14:42:03,15.08838245,0.0001944,53.2179,21.3604,37.0541,323.0585,0.00018958,2.730000000000001e-05,0.0,0 STARLINK-3592,1 51801U 22017AK  22319.61253478  .00002730  00000-0  18958-3 0  9996,2 51801  53.2179  21.3604 0001944  37.0541 323.0585 15.08838245 41249,6917.886,95.438,541.096,538.406,0.0
51801.0,STARLINK-3592,PAYLOAD,2022-11-16 09:46:40,15.08834679,0.0002,53.2179,17.7917,39.1772,320.9365,0.0001247,1.697e-05,0.0,0 STARLINK-3592,1 51801U 22017AK  22320.40741852  .00001697  00000-0  12470-3 0  9997,2 51801  53.2179  17.7917 0002000  39.1772 320.9365 15.08834679 41360,6917.897,95.438,541.145,538.378,0.0
51801.0,STARLINK-3592,PAYLOAD,2022-11-16 12:57:27,15.088356,0.0002029,53.2178,17.197,38.703,321.4107,0.00012488,1.7e-05,0.0,0 STARLINK-3592,1 51801U 22017AK  22320.53989835  .00001700  00000-0  12488-3 0  9990,2 51801  53.2178  17.1970 0002029  38.7030 321.4107 15.08835600 41382,6917.894,95.438,541.1619999999998,538.355,0.0
51801.0,STARLINK-3592,PAYLOAD,2022-11-16 16:08:13,15.08837472,0.0002025,53.2179,16.6024,39.3333,320.7806,0.00013615,1.879e-05,0.0,0 STARLINK-3592,1 51801U 22017AK  22320.67237766  .00001879  00000-0  13615-3 0  9994,2 51801  53.2179  16.6024 0002025  39.3333 320.7806 15.08837472 41406,6917.888000000001,95.438,541.154,538.352,0.0
51801.0,STARLINK-3592,PAYLOAD,2022-11-17 12:48:14,15.08841147,0.0002186,53.2178,12.737,39.7104,320.4048,0.0001254,1.708e-05,0.0,0 STARLINK-3592,1 51801U 22017AK  22321.53349543  .00001708  00000-0  12540-3 0  9994,2 51801  53.2178  12.7370 0002186  39.7104 320.4048 15.08841147 41537,6917.877,95.437,541.254,538.23,0.0
51801.0,STARLINK-3592,PAYLOAD,2022-11-17 15:59:00,15.08843735,0.0002196,53.2179,12.1422,40.3904,319.7251,0.00016351,2.315e-05,0.0,0 STARLINK-3592,1 51801U 22017AK  22321.66597468  .00002315  00000-0  16351-3 0  9998,2 51801  53.2179  12.1422 0002196  40.3904 319.7251 15.08843735 41551,6917.869000000002,95.437,541.253,538.215,0.0
51801.0,STARLINK-3592,PAYLOAD,2022-11-17 20:45:09,15.08847302,0.0002193,53.2175,11.2504,40.5708,319.5447,0.00018039,2.584e-05,0.0,0 STARLINK-3592,1 51801U 22017AK  22321.86469171  .00002584  00000-0  18039-3 0  9992,2 51801  53.2175  11.2504 0002193  40.5708 319.5447 15.08847302 41581,6917.858,95.437,541.24,538.206,0.0
51801.0,STARLINK-3592,PAYLOAD,2022-11-18 06:17:27,15.08852928,0.0002226,53.2175,9.4662,41.4398,318.6762,0.00028042,4.179e-05,0.0,0 STARLINK-3592,1 51801U 22017AK  22322.26212818  .00004179  00000-0  28042-3 0  9998,2 51801  53.2175   9.4662 0002226  41.4398 318.6762 15.08852928 41644,6917.840999999999,95.437,541.246,538.1659999999998,0.0
51801.0,STARLINK-3592,PAYLOAD,2022-11-18 20:35:55,15.08849512,0.0002046,53.2176,6.7891,40.6216,319.4928,0.00015725,2.216e-05,0.0,0 STARLINK-3592,1 51801U 22017AK  22322.85828700  .00002216  00000-0  15725-3 0  9990,2 51801  53.2176   6.7891 0002046  40.6216 319.4928 15.08849512 41737,6917.851,95.437,541.132,538.3009999999998,0.0
51801.0,STARLINK-3592,PAYLOAD,2022-11-19 02:57:28,15.08842135,0.0002011,53.2182,5.6,45.3899,314.7257,-4.2451e-06,-3.56e-06,0.0,0 STARLINK-3592,1 51801U 22017AK  22323.12324955 -.00000356  00000-0 -42451-5 0  9997,2 51801  53.2182   5.6000 0002011  45.3899 314.7257 15.08842135 41776,6917.874,95.437,541.13,538.3480000000002,0.0
51801.0,STARLINK-3592,PAYLOAD,2022-11-19 09:19:01,15.08843754,0.0002036,53.2186,4.4106,44.4646,315.651,6.1658e-05,6.93e-06,0.0,0 STARLINK-3592,1 51801U 22017AK  22323.38821168  .00000693  00000-0  61658-4 0  9994,2 51801  53.2186   4.4106 0002036  44.4646 315.6510 15.08843754 41816,6917.869000000002,95.437,541.1419999999998,538.325,0.0
51801.0,STARLINK-3592,PAYLOAD,2022-11-19 20:26:41,15.08907306,0.0002369,53.2191,2.3297,32.0959,328.0177,-0.0010509,-0.00017006,0.0,0 STARLINK-3592,1 51801U 22017AK  22323.85186720 -.00017006  00000-0 -10509-2 0  9999,2 51801  53.2191   2.3297 0002369  32.0959 328.0177 15.08907306 41887,6917.675,95.433,541.178,537.901,0.0
51801.0,STARLINK-3592,PAYLOAD,2022-11-20 09:09:48,15.08839162,0.0002136,53.2184,359.9501,49.6943,310.4236,1.4555e-05,-5.7e-07,0.0,0 STARLINK-3592,1 51801U 22017AK  22324.38181271 -.00000057  00000-0  14555-4 0  9998,2 51801  53.2184 359.9501 0002136  49.6943 310.4236 15.08839162 41961,6917.8830000000025,95.438,541.226,538.27,0.0
51801.0,STARLINK-3592,PAYLOAD,2022-11-20 12:20:34,15.08838575,0.0002242,53.2186,359.3562,44.1732,315.9439,5.3782e-05,5.68e-06,0.0,0 STARLINK-3592,1 51801U 22017AK  22324.51429231  .00000568  00000-0  53782-4 0  9995,2 51801  53.2186 359.3562 0002242  44.1732 315.9439 15.08838575 41982,6917.885,95.438,541.3009999999998,538.1990000000002,0.0
51801.0,STARLINK-3592,PAYLOAD,2022-11-20 13:55:57,15.08840497,0.0002234,53.2185,359.0586,44.1975,315.9196,8.0442e-05,9.92e-06,0.0,0 STARLINK-3592,1 51801U 22017AK  22324.58053059  .00000992  00000-0  80442-4 0  9997,2 51801  53.2185 359.0586 0002234  44.1975 315.9196 15.08840497 41991,6917.879,95.438,541.289,538.198,0.0
51801.0,STARLINK-3592,PAYLOAD,2022-11-21 12:11:22,15.08837646,0.0002278,53.2183,354.8956,40.9696,319.1467,5.5537e-05,5.96e-06,0.0,0 STARLINK-3592,1 51801U 22017AK  22325.50789386  .00000596  00000-0  55537-4 0  9996,2 51801  53.2183 354.8956 0002278  40.9696 319.1467 15.08837646 42131,6917.888000000001,95.438,541.328,538.177,0.0
51801.0,STARLINK-3592,PAYLOAD,2022-11-21 13:46:45,15.08838145,0.0002308,53.2183,354.5984,39.2776,320.8384,6.4337e-05,7.36e-06,0.0,0 STARLINK-3592,1 51801U 22017AK  22325.57413327  .00000736  00000-0  64337-4 0  9996,2 51801  53.2183 354.5984 0002308  39.2776 320.8384 15.08838145 42146,6917.886,95.438,541.3480000000002,538.154,0.0
51801.0,STARLINK-3592,PAYLOAD,2022-11-22 10:26:45,15.08835718,0.0002282,53.2185,350.7324,39.7276,320.3883,7.629e-05,9.26e-06,0.0,0 STARLINK-3592,1 51801U 22017AK  22326.43525403  .00000926  00000-0  76290-4 0  9993,2 51801  53.2185 350.7324 0002282  39.7276 320.3883 15.08835718 42271,6917.893,95.438,541.337,538.18,0.0
51801.0,STARLINK-3592,PAYLOAD,2022-11-23 10:17:33,15.08835787,0.0002314,53.2185,346.2723,37.7759,322.3396,2.9487e-06,-2.41e-06,0.0,0 STARLINK-3592,1 51801U 22017AK  22327.42885790 -.00000241  00000-0  29487-5 0  9999,2 51801  53.2185 346.2723 0002314  37.7759 322.3396 15.08835787 42428,6917.893,95.438,541.359,538.1569999999998,0.0
51801.0,STARLINK-3592,PAYLOAD,2022-11-23 18:14:28,15.08840196,0.0002322,53.2185,344.7855,38.1201,321.9955,3.1813e-05,2.18e-06,0.0,0 STARLINK-3592,1 51801U 22017AK  22327.76005459  .00000218  00000-0  31813-4 0  9990,2 51801  53.2185 344.7855 0002322  38.1201 321.9955 15.08840196 42474,6917.88,95.438,541.351,538.138,0.0
51801.0,STARLINK-3592,PAYLOAD,2022-11-24 10:08:20,15.08832806,0.0002267,53.2182,341.8113,37.4457,322.6693,-9.9942e-06,-4.47e-06,0.0,0 STARLINK-3592,1 51801U 22017AK  22328.42246097 -.00000447  00000-0 -99942-5 0  9993,2 51801  53.2182 341.8113 0002267  37.4457 322.6693 15.08832806 42576,6917.901999999999,95.438,541.336,538.1990000000002,0.0
51801.0,STARLINK-3592,PAYLOAD,2022-11-25 00:26:48,15.08834832,0.000225,53.2183,339.1349,37.734,322.381,3.8921e-05,3.31e-06,0.0,0 STARLINK-3592,1 51801U 22017AK  22329.01862048  .00000331  00000-0  38921-4 0  9998,2 51801  53.2183 339.1349 0002250  37.7340 322.3810 15.08834832 42663,6917.896,95.438,541.318,538.205,0.0
51801.0,STARLINK-3592,PAYLOAD,2022-11-25 08:23:43,15.08841818,0.0002288,53.2184,337.6481,38.3205,321.7949,8.903e-05,1.129e-05,0.0,0 STARLINK-3592,1 51801U 22017AK  22329.34981414  .00001129  00000-0  89030-4 0  9996,2 51801  53.2184 337.6481 0002288  38.3205 321.7949 15.08841818 42716,6917.875,95.437,541.323,538.1569999999998,0.0
51801.0,STARLINK-3592,PAYLOAD,2022-11-25 17:56:00,15.08864744,0.0002278,53.2187,335.8636,35.8739,324.2406,0.0001945,2.811e-05,0.0,0 STARLINK-3592,1 51801U 22017AK  22329.74723247  .00002811  00000-0  19450-3 0  9995,2 51801  53.2187 335.8636 0002278  35.8739 324.2406 15.08864744 42779,6917.805,95.436,541.246,538.094,0.0
51801.0,STARLINK-3592,PAYLOAD,2022-11-26 00:17:34,15.08850685,0.00025,53.2181,334.6739,44.5089,315.6104,0.00014912,2.086e-05,0.0,0 STARLINK-3592,1 51801U 22017AK  22330.01220224  .00002086  00000-0  14912-3 0  9996,2 51801  53.2181 334.6739 0002500  44.5089 315.6104 15.08850685 42810,6917.848000000001,95.437,541.442,537.9830000000002,0.0
51801.0,STARLINK-3592,PAYLOAD,2022-11-26 09:49:53,15.08841558,0.0002307,53.2185,332.8906,38.7336,321.3822,9.3822e-05,1.205e-05,0.0,0 STARLINK-3592,1 51801U 22017AK  22330.40964773  .00001205  00000-0  93822-4 0  9993,2 51801  53.2185 332.8906 0002307  38.7336 321.3822 15.08841558 42871,6917.876,95.437,541.337,538.145,0.0
51801.0,STARLINK-3592,PAYLOAD,2022-11-26 17:46:48,15.08847014,0.0002364,53.2186,331.4039,39.2796,320.8368,0.00010041,1.31e-05,0.0,0 STARLINK-3592,1 51801U 22017AK  22330.74084323  .00001310  00000-0  10041-3 0  9992,2 51801  53.2186 331.4039 0002364  39.2796 320.8368 15.08847014 42921,6917.859,95.437,541.359,538.089,0.0
51801.0,STARLINK-3592,PAYLOAD,2022-11-27 11:16:04,15.08833004,0.0002136,53.2182,328.1321,39.4942,320.6205,-0.00013882,-2.497e-05,0.0,0 STARLINK-3592,1 51801U 22017AK  22331.46949713 -.00002497  00000-0 -13882-3 0  9990,2 51801  53.2182 328.1321 0002136  39.4942 320.6205 15.08833004 43031,6917.901999999999,95.438,541.244,538.289,0.0
51801.0,STARLINK-3592,PAYLOAD,2022-11-28 09:31:28,15.08834192,0.0002335,53.2177,323.97,34.4261,325.6882,-4.492e-06,-3.6000000000000007e-06,0.0,0 STARLINK-3592,1 51801U 22017AK  22332.39685245 -.00000360  00000-0 -44920-5 0  9996,2 51801  53.2177 323.9700 0002335  34.4261 325.6882 15.08834192 43179,6917.898,95.438,541.378,538.148,0.0
